FLOCK 4BE-9             
1 60514U 24149AY  25259.80619680  .00013789  00000+0  46908-3 0  9994
2 60514  97.4049 338.0396 0004375 177.4402 182.6862 15.30541988 60358
FLOCK 4BE-8             
1 60515U 24149AZ  25259.48097396  .00010965  00000+0  36202-3 0  9992
2 60515  97.3996 337.4399 0004577 154.2405 205.9065 15.31565798 60300
FLOCK 4BE-6             
1 60516U 24149BA  25260.18516065  .00010835  00000+0  37870-3 0  9999
2 60516  97.4050 338.1761 0004881 178.2931 181.8327 15.29719940 60391
FLOCK 4BE-14            
1 60517U 24149BB  25260.16479293  .00014003  00000+0  47487-3 0  9995
2 60517  97.3976 338.1592 0006275 178.9380 181.1875 15.30630572 60413
FLOCK 4BE-1             
1 60518U 24149BC  25259.79221802  .00014536  00000+0  48269-3 0  9994
2 60518  97.4036 338.3272 0005578 178.0535 182.0729 15.31305898 60371
FLOCK 4BE-28            
1 60519U 24149BD  25260.18452331  .00013813  00000+0  44347-3 0  9993
2 60519  97.4005 338.8374 0006005 180.2126 179.9114 15.32401820 60458
IPERDRONE.0             
1 60520U 24149BE  25260.17479623  .00021532  00000+0  55462-3 0  9994
2 60520  97.4029 340.9240 0005453 154.2949 205.8568 15.39221447 60580
2024-149BF              
1 60521U 24149BF  25260.16029029  .00027483  00000+0  68141-3 0  9994
2 60521  97.4042 341.3369 0005490 165.5747 194.5657 15.40338522 60606
CONNECTA IOT-2          
1 60522U 24149BG  25258.48064352  .00010835  00000+0  45258-3 0  9992
2 60522  97.4113 335.7972 0006861 200.5531 159.5431 15.23785345 60080
PTD-R (TYVAK-0127)      
1 60523U 24149BH  25260.16730827  .00031900  00000+0  66700-3 0  9999
2 60523  97.4003 342.7571 0005507 165.8704 194.2700 15.45409681 60718
CONNECTA IOT-4          
1 60524U 24149BJ  25260.19822707  .00014206  00000+0  47701-3 0  9992
2 60524  97.4037 338.1951 0007197 177.6553 182.4724 15.30943239 60404
ORESAT0.5               
1 60525U 24149BK  25260.16338685  .00014699  00000+0  46087-3 0  9999
2 60525  97.3978 339.0118 0007265 171.5686 188.5679 15.33138352 60477
DEIMOS                  
1 60526U 24149BL  25260.15338150  .00013890  00000+0  44095-3 0  9995
2 60526  97.4035 339.1792 0007223 176.6639 183.4653 15.32753784 60466
CUAVA-2                 
1 60527U 24149BM  25259.72688882  .00011197  00000+0  41310-3 0  9992
2 60527  97.3995 336.9555 0008214 178.9169 181.2090 15.27916258 60290
ERNST                   
1 60528U 24149BN  25260.14981619  .00011886  00000+0  41048-3 0  9998
2 60528  97.4060 338.2305 0007384 182.3488 177.7719 15.30073601 60392
GAINDESAT-1A            
1 60529U 24149BP  25260.19024987  .00047576  00000+0  79682-3 0  9990
2 60529  97.4029 344.1931 0005775 173.2140 186.9191 15.51703463 60794
TORO                    
1 60530U 24149BQ  25260.16105818  .00002913  00000+0  27301-3 0  9999
2 60530  97.7087 334.7666 0001699 105.4407 254.7001 14.94797341 59142
HYPSO-2                 
1 60531U 24149BR  25260.16893071  .00003926  00000+0  35125-3 0  9993
2 60531  97.7108 335.4001 0002096 117.3159 242.8276 14.96432012 59185
LEMU NGE                
1 60532U 24149BS  25258.17091255  .00002500  00000+0  23110-3 0  9994
2 60532  97.7138 333.2299 0001055 135.9560 224.1745 14.95472277 58864
LEMUR-2-STELLA          
1 60533U 24149BT  25260.19585684  .00008533  00000+0  62573-3 0  9992
2 60533  97.6977 337.6654 0001308 125.8434 234.2914 15.03756167 59355
SATELIOT_2              
1 60534U 24149BU  25259.80239003  .00001794  00000+0  17039-3 0  9999
2 60534  97.7115 334.6005 0000928  92.9182 267.2144 14.94735802 59105
NIGHTJAR                
1 60535U 24149BV  25260.18461453  .00001934  00000+0  17502-3 0  9990
2 60535  97.7137 335.7157 0000907  75.5910 284.5412 14.96572581102006
LEMUR-2-MARHISYAM       
1 60536U 24149BW  25260.16945551  .00010853  00000+0  79850-3 0  9999
2 60536  97.7110 337.7515 0001508 338.4088  21.7074 15.03559826 59342
SATELIOT_4              
1 60537U 24149BX  25259.80518923  .00001892  00000+0  17779-3 0  9993
2 60537  97.7027 334.3080 0001521 187.2733 172.8466 14.95091527 59108
PICO-02A021             
1 60538U 24149BY  25259.47537187  .00006009  00000+0  49676-3 0  9996
2 60538  97.7088 335.9114 0001768 230.4477 129.6590 14.99301723 58664
ICEYE-X43               
1 60539U 24149BZ  25260.19467179  .00002831  00000+0  24825-3 0  9999
2 60539  97.7062 335.8055 0002352 251.9179 108.1787 14.97435425 59225
HAWK-10A                
1 60540U 24149CA  25260.19728715  .00001216  00000+0  11590-3 0  9998
2 60540  97.7174 335.6140 0002211 261.2518  98.8453 14.95192948 59176
UMBRA-09                
1 60541U 24149CB  25260.19696585  .00008742  00000+0  58500-3 0  9991
2 60541  97.7179 339.5912 0002023 193.2656 166.8518 15.07171153 59447
QPS-SAR-8 (AMATERU-IV)  
1 60542U 24149CC  25260.18243590  .00004796  00000+0  38943-3 0  9999
2 60542  97.7137 336.9101 0003523 306.8834  53.2066 15.00090603 59281
ARCTIC WEATHER SATELLITE
1 60543U 24149CD  25260.19709838  .00000918  00000+0  10137-3 0  9990
2 60543  97.7113 332.9919 0000881 327.7854  32.3310 14.89773379 58651
CAPELLA-15 (ACADIA-5)   
1 60544U 24149CE  25260.17698843  .00006331  00000+0  62317-3 0  9994
2 60544  97.7074 334.4451 0005026 252.9141 107.1528 14.92412389 59131
HAWK-10B                
1 60545U 24149CF  25259.79559059  .00001226  00000+0  11680-3 0  9991
2 60545  97.7102 334.8401 0004148 291.1689  68.9088 14.95193004 59115
ICEYE-X39               
1 60546U 24149CG  25259.69105341  .00004140  00000+0  36059-3 0  9997
2 60546  97.7062 335.3954 0002588 269.5775  90.5150 14.97443070 59159
UMBRA-10                
1 60547U 24149CH  25259.79817120  .00012559  00000+0  83816-3 0  9990
2 60547  97.7187 339.1948 0001956 157.9677 202.1635 15.07171608 59394
ICEYE-X33               
1 60548U 24149CJ  25260.20868246  .00003130  00000+0  26394-3 0  9997
2 60548  97.7091 336.7450 0004164 268.8562  91.2184 14.98890609 59270
ICEYE-X40               
1 60549U 24149CK  25260.18343760  .00000733  00000+0  69297-4 0  9990
2 60549  97.7088 335.9093 0003225 276.1520  83.9334 14.96668286 59226
SATELIOT_1              
1 60550U 24149CL  25260.17386942  .00002452  00000+0  22148-3 0  9993
2 60550  97.7038 335.5008 0005021 268.8665  91.1981 14.96400836 59212
BRO-14                  
1 60551U 24149CM  25260.18541567  .00000932  00000+0  90219-4 0  9997
2 60551  97.7153 335.6299 0005413 296.3430  63.7235 14.95121807 59185
SATELIOT_3              
1 60552U 24149CN  25260.15445423  .00002851  00000+0  25630-3 0  9995
2 60552  97.7094 336.0150 0004061 283.6538  76.4232 14.96454395 59222
BRO-15                  
1 60553U 24149CP  25260.17323080  .00000967  00000+0  92885-4 0  9995
2 60553  97.7085 335.4491 0006581 283.1536  76.8951 14.95332004 59195
UM5-RIBAT               
1 60554U 24149CQ  25260.16541280  .00004241  00000+0  35986-3 0  9996
2 60554  97.7048 336.3473 0005903 262.6713  97.3839 14.98440738 59269
UM5-EOSAT               
1 60555U 24149CR  25260.20948002  .00003270  00000+0  27546-3 0  9999
2 60555  97.7096 336.9332 0007349 271.9560  88.0821 14.98883129 59287
KANYINI                 
1 60556U 24149CS  25260.17880554  .00017688  00000+0  55091-3 0  9997
2 60556  97.4013 338.3215 0003766 130.6234 229.5337 15.33326783 60417
TROOP-F2                
1 60557U 24149CT  25260.19914013  .00032735  00000+0  77109-3 0  9992
2 60557  97.3949 340.6959 0004696 135.1300 225.0327 15.41860097 60592
FLOCK 4BE-35            
1 60558U 24149CU  25260.16786632  .00012750  00000+0  44350-3 0  9991
2 60558  97.4032 338.1300 0004008 169.1496 190.9831 15.29838575 60399
FLOCK 4BE-5             
1 60559U 24149CV  25260.18724219  .00009451  00000+0  33316-3 0  9991
2 60559  97.4093 338.3008 0004292 174.3813 185.7476 15.29483785 60396
FLOCK 4BE-12            
1 60560U 24149CW  25259.75591588  .00014649  00000+0  48667-3 0  9995
2 60560  97.3999 337.9982 0005320 177.8689 182.2576 15.31292225 60360
FLOCK 4BE-3             
1 60561U 24149CX  25259.76207416  .00014274  00000+0  48075-3 0  9998
2 60561  97.3970 337.7348 0006196 175.0906 185.0397 15.30848268 60352
HYPERFIELD-1A           
1 60562U 24149CY  25260.16659279  .00007194  00000+0  27993-3 0  9992
2 60562  97.4067 337.1774 0005662 182.4043 177.7170 15.26303164 60329
FLOCK 4BE-19            
1 60563U 24149CZ  25259.76278983  .00016614  00000+0  53737-3 0  9998
2 60563  97.4004 338.3112 0005723 180.9638 179.1593 15.32123162 60387
PICO-02C023             
1 60564U 24149DA  25260.22472650  .00038346  00000+0  15166-2 0  9998
2 60564  97.6997 343.8304 0000559 192.7610 167.3613 15.25363942 59753
PTD-4 (LISA-T)          
1 60565U 24149DB  25260.17802492  .00013094  00000+0  82955-3 0  9998
2 60565  97.7188 340.0600 0003292 253.5609 106.5258 15.09080565 59463
PICO-02G027             
1 60566U 24149DC  25260.17669330  .00041939  00000+0  16018-2 0  9996
2 60566  97.7020 344.1556 0000985 197.6119 162.5085 15.26507788 59778
PICO-02F026             
1 60567U 24149DD  25260.21592458  .00042407  00000+0  16137-2 0  9991
2 60567  97.7083 344.4742 0001373 194.0644 166.0556 15.26627483 59771
PICO-02I029             
1 60568U 24149DE  25260.19300125  .00043071  00000+0  16560-2 0  9995
2 60568  97.7019 344.1275 0000964 196.2348 163.8859 15.26279754 59763
PICO-02D024             
1 60569U 24149DF  25260.20764003  .00043997  00000+0  16662-2 0  9997
2 60569  97.7082 344.4783 0001242 204.6929 155.4249 15.26777313 59775
PICO-02H028             
1 60570U 24149DG  25260.01261134  .00050163  00000+0  19371-2 0  9998
2 60570  97.7023 343.8926 0000759 203.8077 156.3125 15.26094470 59736
PICO-02B022             
1 60571U 24149DH  25260.22127825  .00074845  00000+0  21410-2 0  9990
2 60571  97.7049 346.2728 0004491 192.6741 167.4390 15.35671778 59898
PICO-02E025             
1 60572U 24149DJ  25260.23626152  .00054544  00000+0  18291-2 0  9996
2 60572  97.7163 345.7019 0003506 183.3443 176.7774 15.30704050 59833
